{"type": "FeatureCollection", "features": [ {"type": "Feature", "properties": {"norad_id": 34685, "name": "COSMOS 2251 DEB", "group": "cosmos-2251-debris", "lat": 54.98437329138998, "lon": -80.86083083821174, "alt_km": 698.1411657686895, "timestamp": "2025-12-26T03:50:12.489117+00:00", "meta": {"OBJECT_NAME": "COSMOS 2251 DEB", "OBJECT_ID": "1993-036YF", "EPOCH": "2025-12-25T17:56:52.785024", "MEAN_MOTION": 14.57622128, "ECCENTRICITY": 0.0014168, "INCLINATION": 74.0298, "RA_OF_ASC_NODE": 124.0483, "ARG_OF_PERICENTER": 229.0876, "MEAN_ANOMALY": 251.3534, "EPHEMERIS_TYPE": 0, "CLASSIFICATION_TYPE": "U", "NORAD_CAT_ID": 34685, "ELEMENT_SET_NO": 999, "REV_AT_EPOCH": 88721, "BSTAR": 0.0011617, "MEAN_MOTION_DOT": 5.276e-05, "MEAN_MOTION_DDOT": 0}, "tle": {"line1": "1 34685U 93036YF  25359.74783316  .00005276  00000+0  11617-2 0  9997", "line2": "2 34685  74.0298 124.0483 0014168 229.0876 251.3534 14.57622128887211"}}, "geometry": {"type": "Point", "coordinates": [-80.86083083821174, 54.98437329138998]}}, {"type": "Feature", "properties": {"norad_id": 34689, "name": "COSMOS 2251 DEB", "group": "cosmos-2251-debris", "lat": -68.50229399078242, "lon": 153.65510167105924, "alt_km": 728.7117379240408, "timestamp": "2025-12-26T03:50:12.489127+00:00", "meta": {"OBJECT_NAME": "COSMOS 2251 DEB", "OBJECT_ID": "1993-036YK", "EPOCH": "2025-12-24T14:51:58.111776", "MEAN_MOTION": 14.04584765, "ECCENTRICITY": 0.02266729, "INCLINATION": 74.0907, "RA_OF_ASC_NODE": 202.7308, "ARG_OF_PERICENTER": 268.9545, "MEAN_ANOMALY": 148.6343, "EPHEMERIS_TYPE": 0, "CLASSIFICATION_TYPE": "U", "NORAD_CAT_ID": 34689, "ELEMENT_SET_NO": 999, "REV_AT_EPOCH": 84508, "BSTAR": 0.0030686233, "MEAN_MOTION_DOT": 6.147e-05, "MEAN_MOTION_DDOT": 0}, "tle": {"line1": "1 34689U 93036YK  25358.61942259  .00006147  00000+0  30686-2 0  9994", "line2": "2 34689  74.0907 202.7308 0226672 268.9545 148.6343 14.04584765845083"}}, "geometry": {"type": "Point", "coordinates": [153.65510167105924, -68.50229399078242]}}, {"type": "Feature", "properties": {"norad_id": 34721, "name": "COSMOS 2251 DEB", "group": "cosmos-2251-debris", "lat": -49.80162675510074, "lon": -76.98928692779461, "alt_km": 847.2346811667421, "timestamp": "2025-12-26T03:50:12.489138+00:00", "meta": {"OBJECT_NAME": "COSMOS 2251 DEB", "OBJECT_ID": "1993-036YP", "EPOCH": "2025-12-25T15:12:34.316928", "MEAN_MOTION": 13.96900478, "ECCENTRICITY": 0.0222577, "INCLINATION": 73.9235, "RA_OF_ASC_NODE": 303.8768, "ARG_OF_PERICENTER": 240.4474, "MEAN_ANOMALY": 299.788, "EPHEMERIS_TYPE": 0, "CLASSIFICATION_TYPE": "U", "NORAD_CAT_ID": 34721, "ELEMENT_SET_NO": 999, "REV_AT_EPOCH": 85329, "BSTAR": 0.0010824, "MEAN_MOTION_DOT": 1.832e-05, "MEAN_MOTION_DDOT": 0}, "tle": {"line1": "1 34721U 93036YP  25359.63373052  .00001832  00000+0  10824-2 0  9991", "line2": "2 34721  73.9235 303.8768 0222577 240.4474 299.7880 13.96900478853290"}}, "geometry": {"type": "Point", "coordinates": [-76.98928692779461, -49.80162675510074]}}, {"type": "Feature", "properties": {"norad_id": 34722, "name": "COSMOS 2251 DEB", "group": "cosmos-2251-debris", "lat": 2.8771711874935133, "lon": 131.29808862411645, "alt_km": 790.3647189319781, "timestamp": "2025-12-26T03:50:12.489148+00:00", "meta": {"OBJECT_NAME": "COSMOS 2251 DEB", "OBJECT_ID": "1993-036YQ", "EPOCH": "2025-12-25T13:57:26.255232", "MEAN_MOTION": 14.11970778, "ECCENTRICITY": 0.0166424, "INCLINATION": 73.8736, "RA_OF_ASC_NODE": 313.1622, "ARG_OF_PERICENTER": 236.4605, "MEAN_ANOMALY": 243.5664, "EPHEMERIS_TYPE": 0, "CLASSIFICATION_TYPE": "U", "NORAD_CAT_ID": 34722, "ELEMENT_SET_NO": 999, "REV_AT_EPOCH": 86426, "BSTAR": 0.00067075, "MEAN_MOTION_DOT": 1.372e-05, "MEAN_MOTION_DDOT": 0}, "tle": {"line1": "1 34722U 93036YQ  25359.58155388  .00001372  00000+0  67075-3 0  9996", "line2": "2 34722  73.8736 313.1622 0166424 236.4605 243.5664 14.11970778864262"}}, "geometry": {"type": "Point", "coordinates": [131.29808862411645, 2.8771711874935133]}}, {"type": "Feature", "properties": {"norad_id": 34726, "name": "COSMOS 2251 DEB", "group": "cosmos-2251-debris", "lat": -18.089007035894202, "lon": -44.64528629708272, "alt_km": 716.580723652165, "timestamp": "2025-12-26T03:50:12.489159+00:00", "meta": {"OBJECT_NAME": "COSMOS 2251 DEB", "OBJECT_ID": "1993-036YU", "EPOCH": "2025-12-25T14:45:46.552896", "MEAN_MOTION": 14.5953237, "ECCENTRICITY": 0.0041695, "INCLINATION": 74.0283, "RA_OF_ASC_NODE": 321.7613, "ARG_OF_PERICENTER": 108.412, "MEAN_ANOMALY": 252.1586, "EPHEMERIS_TYPE": 0, "CLASSIFICATION_TYPE": "U", "NORAD_CAT_ID": 34726, "ELEMENT_SET_NO": 999, "REV_AT_EPOCH": 88690, "BSTAR": 0.00047692, "MEAN_MOTION_DOT": 2.263e-05, "MEAN_MOTION_DDOT": 0}, "tle": {"line1": "1 34726U 93036YU  25359.61512214  .00002263  00000+0  47692-3 0  9992", "line2": "2 34726  74.0283 321.7613 0041695 108.4120 252.1586 14.59532370886901"}}, "geometry": {"type": "Point", "coordinates": [-44.64528629708272, -18.089007035894202]}}, {"type": "Feature", "properties": {"norad_id": 34728, "name": "COSMOS 2251 DEB", "group": "cosmos-2251-debris", "lat": 47.352584385084015, "lon": -116.18507960519705, "alt_km": 628.1043615684748, "timestamp": "2025-12-26T03:50:12.489169+00:00", "meta": {"OBJECT_NAME": "COSMOS 2251 DEB", "OBJECT_ID": "1993-036YW", "EPOCH": "2025-12-25T16:11:11.871744", "MEAN_MOTION": 14.70952564, "ECCENTRICITY": 0.0041694, "INCLINATION": 74.0156, "RA_OF_ASC_NODE": 226.6265, "ARG_OF_PERICENTER": 20.7862, "MEAN_ANOMALY": 339.4992, "EPHEMERIS_TYPE": 0, "CLASSIFICATION_TYPE": "U", "NORAD_CAT_ID": 34728, "ELEMENT_SET_NO": 999, "REV_AT_EPOCH": 88990, "BSTAR": 0.00066767, "MEAN_MOTION_DOT": 4.117e-05, "MEAN_MOTION_DDOT": 0}, "tle": {"line1": "1 34728U 93036YW  25359.67444296  .00004117  00000+0  66767-3 0  9998", "line2": "2 34728  74.0156 226.6265 0041694  20.7862 339.4992 14.70952564889903"}}, "geometry": {"type": "Point", "coordinates": [-116.18507960519705, 47.352584385084015]}}, {"type": "Feature", "properties": {"norad_id": 34729, "name": "COSMOS 2251 DEB", "group": "cosmos-2251-debris", "lat": -67.34784367137051, "lon": -71.52917418265423, "alt_km": 633.9634197346668, "timestamp": "2025-12-26T03:50:12.489180+00:00", "meta": {"OBJECT_NAME": "COSMOS 2251 DEB", "OBJECT_ID": "1993-036YX", "EPOCH": "2025-12-25T02:50:15.235296", "MEAN_MOTION": 14.83146637, "ECCENTRICITY": 0.001201, "INCLINATION": 74.0188, "RA_OF_ASC_NODE": 333.9043, "ARG_OF_PERICENTER": 86.2773, "MEAN_ANOMALY": 40.7021, "EPHEMERIS_TYPE": 0, "CLASSIFICATION_TYPE": "U", "NORAD_CAT_ID": 34729, "ELEMENT_SET_NO": 999, "REV_AT_EPOCH": 88641, "BSTAR": 0.0021744, "MEAN_MOTION_DOT": 0.00017771, "MEAN_MOTION_DDOT": 0}, "tle": {"line1": "1 34729U 93036YX  25359.11823189  .00017771  00000+0  21744-2 0  9995", "line2": "2 34729  74.0188 333.9043 0012010  86.2773  40.7021 14.83146637886411"}}, "geometry": {"type": "Point", "coordinates": [-71.52917418265423, -67.34784367137051]}}, {"type": "Feature", "properties": {"norad_id": 34732, "name": "COSMOS 2251 DEB", "group": "cosmos-2251-debris", "lat": -47.95749556028594, "lon": -93.39434866946613, "alt_km": 713.2362487709051, "timestamp": "2025-12-26T03:50:12.489190+00:00", "meta": {"OBJECT_NAME": "COSMOS 2251 DEB", "OBJECT_ID": "1993-036ZA", "EPOCH": "2025-12-25T15:52:10.646112", "MEAN_MOTION": 14.47314707, "ECCENTRICITY": 0.0040075, "INCLINATION": 74.0455, "RA_OF_ASC_NODE": 69.0408, "ARG_OF_PERICENTER": 217.5894, "MEAN_ANOMALY": 295.8092, "EPHEMERIS_TYPE": 0, "CLASSIFICATION_TYPE": "U", "NORAD_CAT_ID": 34732, "ELEMENT_SET_NO": 999, "REV_AT_EPOCH": 88330, "BSTAR": 0.00014593, "MEAN_MOTION_DOT": 5.12e-06, "MEAN_MOTION_DDOT": 0}, "tle": {"line1": "1 34732U 93036ZA  25359.66123433  .00000512  00000+0  14593-3 0  9994", "line2": "2 34732  74.0455  69.0408 0040075 217.5894 295.8092 14.47314707883300"}}, "geometry": {"type": "Point", "coordinates": [-93.39434866946613, -47.95749556028594]}}, {"type": "Feature", "properties": {"norad_id": 34736, "name": "COSMOS 2251 DEB", "group": "cosmos-2251-debris", "lat": 73.36172530630154, "lon": 80.38346623728735, "alt_km": 381.5193274457688, "timestamp": "2025-12-26T03:50:12.489201+00:00", "meta": {"OBJECT_NAME": "COSMOS 2251 DEB", "OBJECT_ID": "1993-036ZE", "EPOCH": "2025-12-25T10:32:31.957728", "MEAN_MOTION": 15.59599473, "ECCENTRICITY": 0.0010842, "INCLINATION": 73.997, "RA_OF_ASC_NODE": 8.1676, "ARG_OF_PERICENTER": 336.7387, "MEAN_ANOMALY": 23.3339, "EPHEMERIS_TYPE": 0, "CLASSIFICATION_TYPE": "U", "NORAD_CAT_ID": 34736, "ELEMENT_SET_NO": 999, "REV_AT_EPOCH": 88645, "BSTAR": 0.0076825, "MEAN_MOTION_DOT": 0.00665623, "MEAN_MOTION_DDOT": 0}, "tle": {"line1": "1 34736U 93036ZE  25359.43925877  .00665623  00000+0  76825-2 0  9990", "line2": "2 34736  73.9970   8.1676 0010842 336.7387  23.3339 15.59599473886451"}}, "geometry": {"type": "Point", "coordinates": [80.38346623728735, 73.36172530630154]}}, {"type": "Feature", "properties": {"norad_id": 34738, "name": "COSMOS 2251 DEB", "group": "cosmos-2251-debris", "lat": -33.06918497756139, "lon": -51.05961568251332, "alt_km": 720.4647427152031, "timestamp": "2025-12-26T03:50:12.489211+00:00", "meta": {"OBJECT_NAME": "COSMOS 2251 DEB", "OBJECT_ID": "1993-036ZG", "EPOCH": "2025-12-25T19:15:24.511392", "MEAN_MOTION": 14.4633223, "ECCENTRICITY": 0.0047596, "INCLINATION": 74.0157, "RA_OF_ASC_NODE": 118.8518, "ARG_OF_PERICENTER": 262.7401, "MEAN_ANOMALY": 251.4707, "EPHEMERIS_TYPE": 0, "CLASSIFICATION_TYPE": "U", "NORAD_CAT_ID": 34738, "ELEMENT_SET_NO": 999, "REV_AT_EPOCH": 88047, "BSTAR": 0.00035216, "MEAN_MOTION_DOT": 1.253e-05, "MEAN_MOTION_DDOT": 0}, "tle": {"line1": "1 34738U 93036ZG  25359.80236703  .00001253  00000+0  35216-3 0  9999", "line2": "2 34738  74.0157 118.8518 0047596 262.7401 251.4707 14.46332230880477"}}, "geometry": {"type": "Point", "coordinates": [-51.05961568251332, -33.06918497756139]}}]}